start=new Date('2021-12-03T00:00:00.000Z').valueOf();
sats=[{"EPHEMERIS_TYPE":"0","APOAPSIS":"548.449","CENTER_NAME":"EARTH","FILE":"3231014","MEAN_MOTION_DDOT":"0.0000000000000","INCLINATION":"53.0554","TIME_SYSTEM":"UTC","RCS_SIZE":"LARGE","TLE_LINE2":"2 48455  53.0554 335.5123 0001790  66.5142 293.6035 15.06401530 32416","PERIAPSIS":"545.969","ARG_OF_PERICENTER":"66.5142","ELEMENT_SET_NO":"999","MEAN_ELEMENT_THEORY":"SGP4","LAUNCH_DATE":"2021-05-09","OBJECT_ID":"2021-040AD","RA_OF_ASC_NODE":"335.5123","MEAN_MOTION":"15.06401530","REF_FRAME":"TEME","OBJECT_NAME":"STARLINK-2497","NORAD_CAT_ID":"48455","CLASSIFICATION_TYPE":"U","ECCENTRICITY":"0.00017900","PERIOD":"95.592","COUNTRY_CODE":"US","DECAY_DATE":null,"MEAN_ANOMALY":"293.6035","TLE_LINE1":"1 48455U 21040AD  21336.74179246  .00002064  00000-0  15740-3 0  9990","GP_ID":"190949374","BSTAR":"0.00015740000000","OBJECT_TYPE":"PAYLOAD","EPOCH":"2021-12-02T17:48:10.868544","SEMIMAJOR_AXIS":"6925.344","MEAN_MOTION_DOT":"0.00002064","REV_AT_EPOCH":"3241","SITE":"AFETR"},{"CENTER_NAME":"EARTH","FILE":"3230859","INCLINATION":"53.0554","MEAN_MOTION_DDOT":"0.0000000000000","TIME_SYSTEM":"UTC","EPHEMERIS_TYPE":"0","APOAPSIS":"548.232","OBJECT_ID":"2021-040AE","RA_OF_ASC_NODE":"337.0207","MEAN_MOTION":"15.06393830","REF_FRAME":"TEME","OBJECT_NAME":"STARLINK-2508","NORAD_CAT_ID":"48456","RCS_SIZE":"LARGE","TLE_LINE2":"2 48456  53.0554 337.0207 0001443  59.3396 300.7735 15.06393830 31759","PERIAPSIS":"546.233","ELEMENT_SET_NO":"999","ARG_OF_PERICENTER":"59.3396","MEAN_ELEMENT_THEORY":"SGP4","LAUNCH_DATE":"2021-05-09","PERIOD":"95.593","COUNTRY_CODE":"US","DECAY_DATE":null,"MEAN_ANOMALY":"300.7735","CLASSIFICATION_TYPE":"U","ECCENTRICITY":"0.00014430","OBJECT_TYPE":"PAYLOAD","SEMIMAJOR_AXIS":"6925.367","EPOCH":"2021-12-02T09:45:11.349504","MEAN_MOTION_DOT":"0.00000608","SITE":"AFETR","REV_AT_EPOCH":"3175","TLE_LINE1":"1 48456U 21040AE  21336.40638136  .00000608  00000-0  59733-4 0  9995","GP_ID":"190945890","BSTAR":"0.00005973300000"},{"EPHEMERIS_TYPE":"0","APOAPSIS":"548.435","CENTER_NAME":"EARTH","FILE":"3231014","MEAN_MOTION_DDOT":"0.0000000000000","INCLINATION":"53.0579","TIME_SYSTEM":"UTC","TLE_LINE2":"2 48458  53.0579 340.5094 0001744  51.2369 308.8776 15.06395425 32281","RCS_SIZE":"LARGE","ARG_OF_PERICENTER":"51.2369","ELEMENT_SET_NO":"999","PERIAPSIS":"546.020","MEAN_ELEMENT_THEORY":"SGP4","LAUNCH_DATE":"2021-05-09","OBJECT_ID":"2021-040AG","RA_OF_ASC_NODE":"340.5094","MEAN_MOTION":"15.06395425","OBJECT_NAME":"STARLINK-2698","NORAD_CAT_ID":"48458","REF_FRAME":"TEME","CLASSIFICATION_TYPE":"U","ECCENTRICITY":"0.00017440","COUNTRY_CODE":"US","PERIOD":"95.592","DECAY_DATE":null,"MEAN_ANOMALY":"308.8776","GP_ID":"190949887","TLE_LINE1":"1 48458U 21040AG  21336.74224125  .00000228  00000-0  34241-4 0  9998","BSTAR":"0.00003424100000","OBJECT_TYPE":"PAYLOAD","SITE":"AFETR","REV_AT_EPOCH":"3228","EPOCH":"2021-12-02T17:48:49.644000","SEMIMAJOR_AXIS":"6925.363","MEAN_MOTION_DOT":"0.00000228"},{"CLASSIFICATION_TYPE":"U","ECCENTRICITY":"0.00016650","PERIOD":"95.592","COUNTRY_CODE":"US","DECAY_DATE":null,"MEAN_ANOMALY":"299.4741","TLE_LINE1":"1 48459U 21040AH  21336.31097839  .00000705  00000-0  66241-4 0  9997","GP_ID":"190946498","BSTAR":"0.00006624100000","OBJECT_TYPE":"PAYLOAD","SEMIMAJOR_AXIS":"6925.347","EPOCH":"2021-12-02T07:27:48.532896","MEAN_MOTION_DOT":"0.00000705","REV_AT_EPOCH":"3168","SITE":"AFETR","EPHEMERIS_TYPE":"0","APOAPSIS":"548.365","CENTER_NAME":"EARTH","FILE":"3230859","INCLINATION":"53.0565","MEAN_MOTION_DDOT":"0.0000000000000","TIME_SYSTEM":"UTC","RCS_SIZE":"LARGE","TLE_LINE2":"2 48459  53.0565 342.4501 0001665  60.6414 299.4741 15.06400489 31685","PERIAPSIS":"546.059","ELEMENT_SET_NO":"999","ARG_OF_PERICENTER":"60.6414","MEAN_ELEMENT_THEORY":"SGP4","LAUNCH_DATE":"2021-05-09","OBJECT_ID":"2021-040AH","MEAN_MOTION":"15.06400489","RA_OF_ASC_NODE":"342.4501","REF_FRAME":"TEME","OBJECT_NAME":"STARLINK-2579","NORAD_CAT_ID":"48459"},{"PERIOD":"95.592","COUNTRY_CODE":"US","DECAY_DATE":null,"MEAN_ANOMALY":"295.8268","ECCENTRICITY":"0.00016410","CLASSIFICATION_TYPE":"U","OBJECT_TYPE":"PAYLOAD","SEMIMAJOR_AXIS":"6925.339","EPOCH":"2021-12-02T10:19:01.142112","MEAN_MOTION_DOT":"0.00000412","SITE":"AFETR","REV_AT_EPOCH":"3220","TLE_LINE1":"1 48460U 21040AJ  21336.42987433  .00000412  00000-0  46534-4 0  9997","GP_ID":"190946346","BSTAR":"0.00004653400000","CENTER_NAME":"EARTH","FILE":"3230859","MEAN_MOTION_DDOT":"0.0000000000000","INCLINATION":"53.0569","TIME_SYSTEM":"UTC","EPHEMERIS_TYPE":"0","APOAPSIS":"548.341","OBJECT_ID":"2021-040AJ","MEAN_MOTION":"15.06403060","RA_OF_ASC_NODE":"341.9145","REF_FRAME":"TEME","NORAD_CAT_ID":"48460","OBJECT_NAME":"STARLINK-2582","RCS_SIZE":"LARGE","TLE_LINE2":"2 48460  53.0569 341.9145 0001641  64.2890 295.8268 15.06403060 32202","PERIAPSIS":"546.068","ARG_OF_PERICENTER":"64.2890","ELEMENT_SET_NO":"999","MEAN_ELEMENT_THEORY":"SGP4","LAUNCH_DATE":"2021-05-09"},{"ECCENTRICITY":"0.00015650","CLASSIFICATION_TYPE":"U","MEAN_ANOMALY":"296.0689","PERIOD":"95.592","COUNTRY_CODE":"US","DECAY_DATE":null,"BSTAR":"0.00007899100000","TLE_LINE1":"1 48461U 21040AK  21336.44462419  .00000895  00000-0  78991-4 0  9999","GP_ID":"190945586","SEMIMAJOR_AXIS":"6925.363","MEAN_MOTION_DOT":"0.00000895","EPOCH":"2021-12-02T10:40:15.530016","REV_AT_EPOCH":"3170","SITE":"AFETR","OBJECT_TYPE":"PAYLOAD","EPHEMERIS_TYPE":"0","APOAPSIS":"548.312","INCLINATION":"53.0564","MEAN_MOTION_DDOT":"0.0000000000000","TIME_SYSTEM":"UTC","CENTER_NAME":"EARTH","FILE":"3230859","MEAN_ELEMENT_THEORY":"SGP4","LAUNCH_DATE":"2021-05-09","RCS_SIZE":"LARGE","TLE_LINE2":"2 48461  53.0564 341.8428 0001565  64.0461 296.0689 15.06395381 31708","PERIAPSIS":"546.144","ELEMENT_SET_NO":"999","ARG_OF_PERICENTER":"64.0461","RA_OF_ASC_NODE":"341.8428","MEAN_MOTION":"15.06395381","REF_FRAME":"TEME","NORAD_CAT_ID":"48461","OBJECT_NAME":"STARLINK-2693","OBJECT_ID":"2021-040AK"},{"FILE":"3230859","CENTER_NAME":"EARTH","TIME_SYSTEM":"UTC","MEAN_MOTION_DDOT":"0.0000000000000","INCLINATION":"53.0530","APOAPSIS":"548.484","EPHEMERIS_TYPE":"0","OBJECT_ID":"2021-040AL","REF_FRAME":"TEME","NORAD_CAT_ID":"48462","OBJECT_NAME":"STARLINK-2683","RA_OF_ASC_NODE":"347.3440","MEAN_MOTION":"15.06395391","PERIAPSIS":"545.971","ELEMENT_SET_NO":"999","ARG_OF_PERICENTER":"52.5284","RCS_SIZE":"LARGE","TLE_LINE2":"2 48462  53.0530 347.3440 0001814  52.5284 307.5870 15.06395391 31610","MEAN_ELEMENT_THEORY":"SGP4","LAUNCH_DATE":"2021-05-09","DECAY_DATE":null,"PERIOD":"95.592","COUNTRY_CODE":"US","MEAN_ANOMALY":"307.5870","CLASSIFICATION_TYPE":"U","ECCENTRICITY":"0.00018140","OBJECT_TYPE":"PAYLOAD","EPOCH":"2021-12-02T08:01:39.039168","SEMIMAJOR_AXIS":"6925.363","MEAN_MOTION_DOT":"0.00000900","REV_AT_EPOCH":"3161","SITE":"AFETR","TLE_LINE1":"1 48462U 21040AL  21336.33447962  .00000900  00000-0  79309-4 0  9995","GP_ID":"190945738","BSTAR":"0.00007930900000"},{"CLASSIFICATION_TYPE":"U","ECCENTRICITY":"0.00015600","DECAY_DATE":null,"COUNTRY_CODE":"US","PERIOD":"95.592","MEAN_ANOMALY":"302.3380","GP_ID":"190947461","TLE_LINE1":"1 48463U 21040AM  21336.76573080  .00001358  00000-0  11004-3 0  9999","BSTAR":"0.00011004000000","OBJECT_TYPE":"PAYLOAD","SITE":"AFETR","REV_AT_EPOCH":"3295","SEMIMAJOR_AXIS":"6925.350","EPOCH":"2021-12-02T18:22:39.141120","MEAN_MOTION_DOT":"0.00001358","APOAPSIS":"548.296","EPHEMERIS_TYPE":"0","FILE":"3230916","CENTER_NAME":"EARTH","TIME_SYSTEM":"UTC","MEAN_MOTION_DDOT":"0.0000000000000","INCLINATION":"53.0565","ELEMENT_SET_NO":"999","ARG_OF_PERICENTER":"57.7760","PERIAPSIS":"546.135","TLE_LINE2":"2 48463  53.0565 345.4134 0001560  57.7760 302.3380 15.06399377 32957","RCS_SIZE":"LARGE","MEAN_ELEMENT_THEORY":"SGP4","LAUNCH_DATE":"2021-05-09","OBJECT_ID":"2021-040AM","NORAD_CAT_ID":"48463","OBJECT_NAME":"STARLINK-2689","REF_FRAME":"TEME","RA_OF_ASC_NODE":"345.4134","MEAN_MOTION":"15.06399377"},{"LAUNCH_DATE":"2021-05-09","MEAN_ELEMENT_THEORY":"SGP4","TLE_LINE2":"2 48464  53.0573 345.5082 0001747  58.9873 301.1287 15.06389957 32951","RCS_SIZE":"LARGE","ARG_OF_PERICENTER":"58.9873","ELEMENT_SET_NO":"999","PERIAPSIS":"546.034","RA_OF_ASC_NODE":"345.5082","MEAN_MOTION":"15.06389957","OBJECT_NAME":"STARLINK-2686","NORAD_CAT_ID":"48464","REF_FRAME":"TEME","OBJECT_ID":"2021-040AN","EPHEMERIS_TYPE":"0","APOAPSIS":"548.454","MEAN_MOTION_DDOT":"0.0000000000000","INCLINATION":"53.0573","TIME_SYSTEM":"UTC","CENTER_NAME":"EARTH","FILE":"3231014","BSTAR":"0.00005882900000","GP_ID":"190949376","TLE_LINE1":"1 48464U 21040AN  21336.74457496  .00000595  00000-0  58829-4 0  9999","REV_AT_EPOCH":"3295","SITE":"AFETR","MEAN_MOTION_DOT":"0.00000595","SEMIMAJOR_AXIS":"6925.379","EPOCH":"2021-12-02T17:52:11.276544","OBJECT_TYPE":"PAYLOAD","ECCENTRICITY":"0.00017470","CLASSIFICATION_TYPE":"U","MEAN_ANOMALY":"301.1287","COUNTRY_CODE":"US","PERIOD":"95.593","DECAY_DATE":null},{"INCLINATION":"53.0579","MEAN_MOTION_DDOT":"0.0000000000000","TIME_SYSTEM":"UTC","CENTER_NAME":"EARTH","FILE":"3230859","EPHEMERIS_TYPE":"0","APOAPSIS":"548.438","MEAN_MOTION":"15.06392912","RA_OF_ASC_NODE":"346.9374","REF_FRAME":"TEME","NORAD_CAT_ID":"48465","OBJECT_NAME":"STARLINK-2681","OBJECT_ID":"2021-040AP","LAUNCH_DATE":"2021-05-09","MEAN_ELEMENT_THEORY":"SGP4","RCS_SIZE":"LARGE","TLE_LINE2":"2 48465  53.0579 346.9374 0001736  54.2838 305.8313 15.06392912 31635","PERIAPSIS":"546.033","ARG_OF_PERICENTER":"54.2838","ELEMENT_SET_NO":"999","MEAN_ANOMALY":"305.8313","PERIOD":"95.593","COUNTRY_CODE":"US","DECAY_DATE":null,"ECCENTRICITY":"0.00017360","CLASSIFICATION_TYPE":"U","MEAN_MOTION_DOT":"0.00000516","SEMIMAJOR_AXIS":"6925.370","EPOCH":"2021-12-02T10:10:24.353472","SITE":"AFETR","REV_AT_EPOCH":"3163","OBJECT_TYPE":"PAYLOAD","BSTAR":"0.00005356900000","TLE_LINE1":"1 48465U 21040AP  21336.42389298  .00000516  00000-0  53569-4 0  9998","GP_ID":"190945891"}];
